{"type": "FeatureCollection", "features": [ {"type": "Feature", "properties": {"norad_id": 58654, "name": "BEIDOU-3 M28 (C50)", "group": "beidou", "lat": 19.40569606865566, "lon": -125.53276718931446, "alt_km": 21529.07032729747, "timestamp": "2025-12-18T13:51:49.949240+00:00", "meta": {"OBJECT_NAME": "BEIDOU-3 M28 (C50)", "OBJECT_ID": "2023-207A", "EPOCH": "2025-12-18T08:16:11.726688", "MEAN_MOTION": 1.86229841, "ECCENTRICITY": 0.00026244, "INCLINATION": 55.5892, "RA_OF_ASC_NODE": 68.4116, "ARG_OF_PERICENTER": 272.1246, "MEAN_ANOMALY": 87.875, "EPHEMERIS_TYPE": 0, "CLASSIFICATION_TYPE": "U", "NORAD_CAT_ID": 58654, "ELEMENT_SET_NO": 999, "REV_AT_EPOCH": 1347, "BSTAR": 0, "MEAN_MOTION_DOT": -6.6e-07, "MEAN_MOTION_DDOT": 0}, "tle": {"line1": "1 58654U 23207A   25352.34458017 -.00000066  00000+0  00000+0 0  9992", "line2": "2 58654  55.5892  68.4116 0002624 272.1246  87.8750  1.86229841 13479"}}, "geometry": {"type": "Point", "coordinates": [-125.53276718931446, 19.40569606865566]}}, {"type": "Feature", "properties": {"norad_id": 58655, "name": "BEIDOU-3 M26 (C48)", "group": "beidou", "lat": -49.93844588930226, "lon": 13.938530033645602, "alt_km": 21524.287914569984, "timestamp": "2025-12-18T13:51:49.949252+00:00", "meta": {"OBJECT_NAME": "BEIDOU-3 M26 (C48)", "OBJECT_ID": "2023-207B", "EPOCH": "2025-12-17T14:31:30.894816", "MEAN_MOTION": 1.86231346, "ECCENTRICITY": 0.0004016, "INCLINATION": 55.5906, "RA_OF_ASC_NODE": 68.4229, "ARG_OF_PERICENTER": 258.0544, "MEAN_ANOMALY": 101.9267, "EPHEMERIS_TYPE": 0, "CLASSIFICATION_TYPE": "U", "NORAD_CAT_ID": 58655, "ELEMENT_SET_NO": 999, "REV_AT_EPOCH": 1344, "BSTAR": 0, "MEAN_MOTION_DOT": -7.2e-07, "MEAN_MOTION_DDOT": 0}, "tle": {"line1": "1 58655U 23207B   25351.60521869 -.00000072  00000+0  00000+0 0  9994", "line2": "2 58655  55.5906  68.4229 0004016 258.0544 101.9267  1.86231346 13443"}}, "geometry": {"type": "Point", "coordinates": [13.938530033645602, -49.93844588930226]}}, {"type": "Feature", "properties": {"norad_id": 61186, "name": "BEIDOU-3 M25 (C47)", "group": "beidou", "lat": 37.93504397038302, "lon": -17.927384740167174, "alt_km": 21528.658327993362, "timestamp": "2025-12-18T13:51:49.949263+00:00", "meta": {"OBJECT_NAME": "BEIDOU-3 M25 (C47)", "OBJECT_ID": "2024-168B", "EPOCH": "2025-12-18T00:39:01.420992", "MEAN_MOTION": 1.86230296, "ECCENTRICITY": 0.00054425, "INCLINATION": 54.6373, "RA_OF_ASC_NODE": 308.537, "ARG_OF_PERICENTER": 299.044, "MEAN_ANOMALY": 100.6746, "EPHEMERIS_TYPE": 0, "CLASSIFICATION_TYPE": "U", "NORAD_CAT_ID": 61186, "ELEMENT_SET_NO": 999, "REV_AT_EPOCH": 841, "BSTAR": 0, "MEAN_MOTION_DOT": -8.7e-07, "MEAN_MOTION_DDOT": 0}, "tle": {"line1": "1 61186U 24168B   25352.02709978 -.00000087  00000+0  00000+0 0  9996", "line2": "2 61186  54.6373 308.5370 0005442 299.0440 100.6746  1.86230296  8415"}}, "geometry": {"type": "Point", "coordinates": [-17.927384740167174, 37.93504397038302]}}, {"type": "Feature", "properties": {"norad_id": 61187, "name": "BEIDOU-3 M27 (C49)", "group": "beidou", "lat": -3.1288242358594447, "lon": 130.70058295809116, "alt_km": 21535.09472428863, "timestamp": "2025-12-18T13:51:49.949274+00:00", "meta": {"OBJECT_NAME": "BEIDOU-3 M27 (C49)", "OBJECT_ID": "2024-168C", "EPOCH": "2025-12-17T09:44:22.026336", "MEAN_MOTION": 1.86230445, "ECCENTRICITY": 0.00024936, "INCLINATION": 54.6333, "RA_OF_ASC_NODE": 308.542, "ARG_OF_PERICENTER": 338.9889, "MEAN_ANOMALY": 139.133, "EPHEMERIS_TYPE": 0, "CLASSIFICATION_TYPE": "U", "NORAD_CAT_ID": 61187, "ELEMENT_SET_NO": 999, "REV_AT_EPOCH": 587, "BSTAR": 0, "MEAN_MOTION_DOT": -9.1e-07, "MEAN_MOTION_DDOT": 0}, "tle": {"line1": "1 61187U 24168C   25351.40581049 -.00000091  00000+0  00000+0 0  9990", "line2": "2 61187  54.6333 308.5420 0002493 338.9889 139.1330  1.86230445  5870"}}, "geometry": {"type": "Point", "coordinates": [130.70058295809116, -3.1288242358594447]}}]}